GLOBALSTAR M063         
1 26081U 00008A   25167.59418375 -.00000058  00000+0  36006-3 0  9999
2 26081  51.9940 113.1327 0004805 320.5768 210.3820 11.86175052157503
GLOBALSTAR M062         
1 26082U 00008B   25167.26151465 -.00000137  00000+0 -27633-3 0  9993
2 26082  51.9849  98.5036 0007259 105.4335  59.8847 12.43467593496500
GLOBALSTAR M060         
1 26083U 00008C   25167.43247644  .00000065  00000+0  15542-2 0  9991
2 26083  52.0035  57.9022 0003657 112.3571  62.3358 12.17665028152274
GLOBALSTAR M064         
1 26084U 00008D   25167.38662387 -.00000074  00000+0  12828-3 0  9997
2 26084  52.0011 212.5184 0001155  63.8514 296.2437 11.88534701167008
GLOBALSTAR M065         
1 31571U 07020A   25167.42601042 -.00000088  00000+0  90172-4 0  9995
2 31571  51.9881 228.5860 0009812 306.5957  79.7392 12.62009129833314
GLOBALSTAR M069         
1 31573U 07020C   25167.42659913 -.00000081  00000+0  10588-3 0  9992
2 31573  51.9928 207.3879 0001476 160.7118 230.9093 12.23446513834038
GLOBALSTAR M071         
1 31576U 07020F   25167.21469887 -.00000064  00000+0  27120-3 0  9992
2 31576  52.0048 233.5544 0001019 126.5693 245.0733 12.18255603494826
